{"type": "FeatureCollection", "features": [ {"type": "Feature", "properties": {"norad_id": 40701, "name": "GAOFEN-8", "group": "resource", "lat": 60.34627809281989, "lon": 6.6436962710213665, "alt_km": 435.809540703086, "timestamp": "2025-12-20T09:36:01.288874+00:00", "meta": {"OBJECT_NAME": "GAOFEN-8", "OBJECT_ID": "2015-030A", "EPOCH": "2025-12-20T04:24:17.946720", "MEAN_MOTION": 15.38777487, "ECCENTRICITY": 0.0011906, "INCLINATION": 97.69, "RA_OF_ASC_NODE": 172.687, "ARG_OF_PERICENTER": 112.9638, "MEAN_ANOMALY": 247.2863, "EPHEMERIS_TYPE": 0, "CLASSIFICATION_TYPE": "U", "NORAD_CAT_ID": 40701, "ELEMENT_SET_NO": 999, "REV_AT_EPOCH": 58385, "BSTAR": 0.00017654, "MEAN_MOTION_DOT": 6.692e-05, "MEAN_MOTION_DDOT": 0}, "tle": {"line1": "1 40701U 15030A   25354.18354105  .00006692  00000+0  17654-3 0  9995", "line2": "2 40701  97.6900 172.6870 0011906 112.9638 247.2863 15.38777487583851"}}, "geometry": {"type": "Point", "coordinates": [6.6436962710213665, 60.34627809281989]}}, {"type": "Feature", "properties": {"norad_id": 40718, "name": "CARBONITE 1 (CBNT-1)", "group": "resource", "lat": -49.061829209676475, "lon": -175.9923677430727, "alt_km": 636.8795570927787, "timestamp": "2025-12-20T09:36:01.288884+00:00", "meta": {"OBJECT_NAME": "CARBONITE 1 (CBNT-1)", "OBJECT_ID": "2015-032D", "EPOCH": "2025-12-20T03:20:46.484160", "MEAN_MOTION": 14.82777163, "ECCENTRICITY": 0.0014966, "INCLINATION": 97.6395, "RA_OF_ASC_NODE": 174.8569, "ARG_OF_PERICENTER": 157.231, "MEAN_ANOMALY": 202.9571, "EPHEMERIS_TYPE": 0, "CLASSIFICATION_TYPE": "U", "NORAD_CAT_ID": 40718, "ELEMENT_SET_NO": 999, "REV_AT_EPOCH": 56280, "BSTAR": 0.00025274, "MEAN_MOTION_DOT": 1.996e-05, "MEAN_MOTION_DDOT": 0}, "tle": {"line1": "1 40718U 15032D   25354.13942690  .00001996  00000+0  25274-3 0  9991", "line2": "2 40718  97.6395 174.8569 0014966 157.2310 202.9571 14.82777163562809"}}, "geometry": {"type": "Point", "coordinates": [-175.9923677430727, -49.061829209676475]}}, {"type": "Feature", "properties": {"norad_id": 40878, "name": "YAOGAN-27", "group": "resource", "lat": 76.54433318888027, "lon": -148.1704233012142, "alt_km": 1198.1439330186313, "timestamp": "2025-12-20T09:36:01.288894+00:00", "meta": {"OBJECT_NAME": "YAOGAN-27", "OBJECT_ID": "2015-040A", "EPOCH": "2025-12-20T05:27:00.237312", "MEAN_MOTION": 13.16060565, "ECCENTRICITY": 0.0007574, "INCLINATION": 100.1006, "RA_OF_ASC_NODE": 343.5085, "ARG_OF_PERICENTER": 268.2662, "MEAN_ANOMALY": 91.7584, "EPHEMERIS_TYPE": 0, "CLASSIFICATION_TYPE": "U", "NORAD_CAT_ID": 40878, "ELEMENT_SET_NO": 999, "REV_AT_EPOCH": 49412, "BSTAR": -0.00055687, "MEAN_MOTION_DOT": -2.54e-06, "MEAN_MOTION_DDOT": 0}, "tle": {"line1": "1 40878U 15040A   25354.22708608 -.00000254  00000+0 -55687-3 0  9995", "line2": "2 40878 100.1006 343.5085 0007574 268.2662  91.7584 13.16060565494127"}}, "geometry": {"type": "Point", "coordinates": [-148.1704233012142, 76.54433318888027]}}, {"type": "Feature", "properties": {"norad_id": 40894, "name": "GAOFEN-9 01", "group": "resource", "lat": -41.53036556908297, "lon": -153.81527870444515, "alt_km": 644.6933472191595, "timestamp": "2025-12-20T09:36:01.288904+00:00", "meta": {"OBJECT_NAME": "GAOFEN-9 01", "OBJECT_ID": "2015-047A", "EPOCH": "2025-12-20T05:21:43.241760", "MEAN_MOTION": 14.82439111, "ECCENTRICITY": 0.0027789, "INCLINATION": 97.6533, "RA_OF_ASC_NODE": 32.8555, "ARG_OF_PERICENTER": 10.2557, "MEAN_ANOMALY": 349.9218, "EPHEMERIS_TYPE": 0, "CLASSIFICATION_TYPE": "U", "NORAD_CAT_ID": 40894, "ELEMENT_SET_NO": 999, "REV_AT_EPOCH": 55367, "BSTAR": 0.00010301, "MEAN_MOTION_DOT": 7.8e-06, "MEAN_MOTION_DDOT": 0}, "tle": {"line1": "1 40894U 15047A   25354.22341715  .00000780  00000+0  10301-3 0  9998", "line2": "2 40894  97.6533  32.8555 0027789  10.2557 349.9218 14.82439111553677"}}, "geometry": {"type": "Point", "coordinates": [-153.81527870444515, -41.53036556908297]}}, {"type": "Feature", "properties": {"norad_id": 41026, "name": "YAOGAN-28", "group": "resource", "lat": 82.68138941397294, "lon": 47.41312882534297, "alt_km": 476.4378144389102, "timestamp": "2025-12-20T09:36:01.288914+00:00", "meta": {"OBJECT_NAME": "YAOGAN-28", "OBJECT_ID": "2015-064A", "EPOCH": "2025-12-20T04:29:04.447392", "MEAN_MOTION": 15.24466155, "ECCENTRICITY": 0.0012621, "INCLINATION": 97.281, "RA_OF_ASC_NODE": 131.7695, "ARG_OF_PERICENTER": 102.352, "MEAN_ANOMALY": 257.9131, "EPHEMERIS_TYPE": 0, "CLASSIFICATION_TYPE": "U", "NORAD_CAT_ID": 41026, "ELEMENT_SET_NO": 999, "REV_AT_EPOCH": 56338, "BSTAR": 0.00023063, "MEAN_MOTION_DOT": 5.606e-05, "MEAN_MOTION_DDOT": 0}, "tle": {"line1": "1 41026U 15064A   25354.18685703  .00005606  00000+0  23063-3 0  9999", "line2": "2 41026  97.2810 131.7695 0012621 102.3520 257.9131 15.24466155563381"}}, "geometry": {"type": "Point", "coordinates": [47.41312882534297, 82.68138941397294]}}, {"type": "Feature", "properties": {"norad_id": 41038, "name": "YAOGAN-29", "group": "resource", "lat": 56.423899862046575, "lon": -150.13830678701166, "alt_km": 614.6062117851116, "timestamp": "2025-12-20T09:36:01.288941+00:00", "meta": {"OBJECT_NAME": "YAOGAN-29", "OBJECT_ID": "2015-069A", "EPOCH": "2025-12-20T04:11:26.896704", "MEAN_MOTION": 14.82892016, "ECCENTRICITY": 4.96e-05, "INCLINATION": 98.0211, "RA_OF_ASC_NODE": 17.3707, "ARG_OF_PERICENTER": 175.9827, "MEAN_ANOMALY": 184.139, "EPHEMERIS_TYPE": 0, "CLASSIFICATION_TYPE": "U", "NORAD_CAT_ID": 41038, "ELEMENT_SET_NO": 999, "REV_AT_EPOCH": 54409, "BSTAR": 9.9886e-05, "MEAN_MOTION_DOT": 7.55e-06, "MEAN_MOTION_DDOT": 0}, "tle": {"line1": "1 41038U 15069A   25354.17461686  .00000755  00000+0  99886-4 0  9995", "line2": "2 41038  98.0211  17.3707 0000496 175.9827 184.1390 14.82892016544091"}}, "geometry": {"type": "Point", "coordinates": [-150.13830678701166, 56.423899862046575]}}, {"type": "Feature", "properties": {"norad_id": 41167, "name": "KENT RIDGE 1", "group": "resource", "lat": 11.846854713179134, "lon": -77.38355752084348, "alt_km": 498.4853222243246, "timestamp": "2025-12-20T09:36:01.288955+00:00", "meta": {"OBJECT_NAME": "KENT RIDGE 1", "OBJECT_ID": "2015-077B", "EPOCH": "2025-12-20T02:45:02.433600", "MEAN_MOTION": 15.21689369, "ECCENTRICITY": 0.0008514, "INCLINATION": 14.9782, "RA_OF_ASC_NODE": 156.4146, "ARG_OF_PERICENTER": 235.187, "MEAN_ANOMALY": 124.765, "EPHEMERIS_TYPE": 0, "CLASSIFICATION_TYPE": "U", "NORAD_CAT_ID": 41167, "ELEMENT_SET_NO": 999, "REV_AT_EPOCH": 55376, "BSTAR": 0.00011727, "MEAN_MOTION_DOT": 3.486e-05, "MEAN_MOTION_DDOT": 0}, "tle": {"line1": "1 41167U 15077B   25354.11461150  .00003486  00000+0  11727-3 0  9998", "line2": "2 41167  14.9782 156.4146 0008514 235.1870 124.7650 15.21689369553764"}}, "geometry": {"type": "Point", "coordinates": [-77.38355752084348, 11.846854713179134]}}, {"type": "Feature", "properties": {"norad_id": 41194, "name": "GAOFEN-4", "group": "resource", "lat": -0.19104573998296762, "lon": -21.043280845334692, "alt_km": 35797.691083387544, "timestamp": "2025-12-20T09:36:01.288970+00:00", "meta": {"OBJECT_NAME": "GAOFEN-4", "OBJECT_ID": "2015-083A", "EPOCH": "2025-12-19T15:27:26.627616", "MEAN_MOTION": 1.00273138, "ECCENTRICITY": 0.0002945, "INCLINATION": 0.1878, "RA_OF_ASC_NODE": 81.7841, "ARG_OF_PERICENTER": 93.4275, "MEAN_ANOMALY": 250.8523, "EPHEMERIS_TYPE": 0, "CLASSIFICATION_TYPE": "U", "NORAD_CAT_ID": 41194, "ELEMENT_SET_NO": 999, "REV_AT_EPOCH": 3672, "BSTAR": 0, "MEAN_MOTION_DOT": -3.11e-06, "MEAN_MOTION_DDOT": 0}, "tle": {"line1": "1 41194U 15083A   25353.64405819 -.00000311  00000+0  00000+0 0  9995", "line2": "2 41194   0.1878  81.7841 0002945  93.4275 250.8523  1.00273138 36722"}}, "geometry": {"type": "Point", "coordinates": [-21.043280845334692, -0.19104573998296762]}}, {"type": "Feature", "properties": {"norad_id": 41240, "name": "JASON-3", "group": "resource", "lat": 2.869416860260709, "lon": -39.557794750866755, "alt_km": 1312.9121237481868, "timestamp": "2025-12-20T09:36:01.288981+00:00", "meta": {"OBJECT_NAME": "JASON-3", "OBJECT_ID": "2016-002A", "EPOCH": "2025-12-20T03:05:33.153216", "MEAN_MOTION": 12.87626867, "ECCENTRICITY": 0.0007217, "INCLINATION": 66.0399, "RA_OF_ASC_NODE": 142.2892, "ARG_OF_PERICENTER": 271.2706, "MEAN_ANOMALY": 88.7485, "EPHEMERIS_TYPE": 0, "CLASSIFICATION_TYPE": "U", "NORAD_CAT_ID": 41240, "ELEMENT_SET_NO": 999, "REV_AT_EPOCH": 46419, "BSTAR": -2.2119e-05, "MEAN_MOTION_DOT": -6.8e-07, "MEAN_MOTION_DDOT": 0}, "tle": {"line1": "1 41240U 16002A   25354.12885594 -.00000068  00000+0 -22119-4 0  9995", "line2": "2 41240  66.0399 142.2892 0007217 271.2706  88.7485 12.87626867464193"}}, "geometry": {"type": "Point", "coordinates": [-39.557794750866755, 2.869416860260709]}}, {"type": "Feature", "properties": {"norad_id": 41335, "name": "SENTINEL-3A", "group": "resource", "lat": 73.40571687276793, "lon": 28.665112251770772, "alt_km": 794.9962933605393, "timestamp": "2025-12-20T09:36:01.288992+00:00", "meta": {"OBJECT_NAME": "SENTINEL-3A", "OBJECT_ID": "2016-011A", "EPOCH": "2025-12-20T04:11:49.855776", "MEAN_MOTION": 14.26733364, "ECCENTRICITY": 9.03e-05, "INCLINATION": 98.6305, "RA_OF_ASC_NODE": 59.0836, "ARG_OF_PERICENTER": 93.9672, "MEAN_ANOMALY": 266.1612, "EPHEMERIS_TYPE": 0, "CLASSIFICATION_TYPE": "U", "NORAD_CAT_ID": 41335, "ELEMENT_SET_NO": 999, "REV_AT_EPOCH": 51253, "BSTAR": 5.9605e-05, "MEAN_MOTION_DOT": 1.01e-06, "MEAN_MOTION_DDOT": 0}, "tle": {"line1": "1 41335U 16011A   25354.17488259  .00000101  00000+0  59605-4 0  9998", "line2": "2 41335  98.6305  59.0836 0000903  93.9672 266.1612 14.26733364512537"}}, "geometry": {"type": "Point", "coordinates": [28.665112251770772, 73.40571687276793]}}]}